[{"OBJECT_NAME":"STRIX-2","OBJECT_ID":"2024-248A","EPOCH":"2026-03-09T23:00:54.819648","MEAN_MOTION":15.07630986,"ECCENTRICITY":0.00151844,"INCLINATION":97.6197,"RA_OF_ASC_NODE":25.3276,"ARG_OF_PERICENTER":319.5195,"MEAN_ANOMALY":40.4902,"EPHEMERIS_TYPE":0,"CLASSIFICATION_TYPE":"U","NORAD_CAT_ID":62406,"ELEMENT_SET_NO":999,"REV_AT_EPOCH":6663,"BSTAR":0.00066021351,"MEAN_MOTION_DOT":0.00010025,"MEAN_MOTION_DDOT":0},{"OBJECT_NAME":"STARLINK-35261","OBJECT_ID":"2025-207D","EPOCH":"2026-03-09T17:56:34.272096","MEAN_MOTION":15.05645009,"ECCENTRICITY":0.00012423,"INCLINATION":97.603,"RA_OF_ASC_NODE":138.7752,"ARG_OF_PERICENTER":85.1834,"MEAN_ANOMALY":274.9535,"EPHEMERIS_TYPE":0,"CLASSIFICATION_TYPE":"U","NORAD_CAT_ID":65595,"ELEMENT_SET_NO":999,"REV_AT_EPOCH":2827,"BSTAR":0.00026470351,"MEAN_MOTION_DOT":3.76e-5,"MEAN_MOTION_DDOT":0}]
